[
  {
    "OBJECT_NAME": "STARLINK-3898",
    "OBJECT_ID": "2022-049H",
    "EPOCH": "2024-05-21T04:36:16.115616",
    "MEAN_MOTION": 15.08835714,
    "ECCENTRICITY": 9.01e-5,
    "INCLINATION": 53.2168,
    "RA_OF_ASC_NODE": 140.7447,
    "ARG_OF_PERICENTER": 78.0254,
    "MEAN_ANOMALY": 282.0839,
    "EPHEMERIS_TYPE": 0,
    "CLASSIFICATION_TYPE": "U",
    "NORAD_CAT_ID": 52458,
    "ELEMENT_SET_NO": 999,
    "REV_AT_EPOCH": 11301,
    "BSTAR": 9.6271e-5,
    "MEAN_MOTION_DOT": 1.245e-5,
    "MEAN_MOTION_DDOT": 0
  },
  {
    "OBJECT_NAME": "STARLINK-3856",
    "OBJECT_ID": "2022-049J",
    "EPOCH": "2024-05-21T04:15:01.258560",
    "MEAN_MOTION": 15.08835225,
    "ECCENTRICITY": 0.0001205,
    "INCLINATION": 53.216,
    "RA_OF_ASC_NODE": 130.8094,
    "ARG_OF_PERICENTER": 97.1897,
    "MEAN_ANOMALY": 262.9232,
    "EPHEMERIS_TYPE": 0,
    "CLASSIFICATION_TYPE": "U",
    "NORAD_CAT_ID": 52459,
    "ELEMENT_SET_NO": 999,
    "REV_AT_EPOCH": 11314,
    "BSTAR": 1.1944e-5,
    "MEAN_MOTION_DOT": -9.8e-7,
    "MEAN_MOTION_DDOT": 0
  },
  {
    "OBJECT_NAME": "STARLINK-3865",
    "OBJECT_ID": "2022-049K",
    "EPOCH": "2024-05-20T08:59:46.673664",
    "MEAN_MOTION": 15.08840984,
    "ECCENTRICITY": 0.0001528,
    "INCLINATION": 53.216,
    "RA_OF_ASC_NODE": 134.3599,
    "ARG_OF_PERICENTER": 84.0909,
    "MEAN_ANOMALY": 276.0258,
    "EPHEMERIS_TYPE": 0,
    "CLASSIFICATION_TYPE": "U",
    "NORAD_CAT_ID": 52460,
    "ELEMENT_SET_NO": 999,
    "REV_AT_EPOCH": 11286,
    "BSTAR": 6.4751e-5,
    "MEAN_MOTION_DOT": 7.43e-6,
    "MEAN_MOTION_DDOT": 0
  },
  {
    "OBJECT_NAME": "STARLINK-3900",
    "OBJECT_ID": "2022-049L",
    "EPOCH": "2024-05-20T05:55:38.625312",
    "MEAN_MOTION": 15.0883758,
    "ECCENTRICITY": 0.0001377,
    "INCLINATION": 53.2155,
    "RA_OF_ASC_NODE": 124.9861,
    "ARG_OF_PERICENTER": 75.404,
    "MEAN_ANOMALY": 284.7104,
    "EPHEMERIS_TYPE": 0,
    "CLASSIFICATION_TYPE": "U",
    "NORAD_CAT_ID": 52461,
    "ELEMENT_SET_NO": 999,
    "REV_AT_EPOCH": 11298,
    "BSTAR": 0.00034235,
    "MEAN_MOTION_DOT": 5.164e-5,
    "MEAN_MOTION_DDOT": 0
  },
  {
    "OBJECT_NAME": "STARLINK-3903",
    "OBJECT_ID": "2022-049M",
    "EPOCH": "2024-05-21T04:05:48.448896",
    "MEAN_MOTION": 15.08831994,
    "ECCENTRICITY": 0.000177,
    "INCLINATION": 53.2173,
    "RA_OF_ASC_NODE": 130.8505,
    "ARG_OF_PERICENTER": 88.1445,
    "MEAN_ANOMALY": 271.975,
    "EPHEMERIS_TYPE": 0,
    "CLASSIFICATION_TYPE": "U",
    "NORAD_CAT_ID": 52462,
    "ELEMENT_SET_NO": 999,
    "REV_AT_EPOCH": 11314,
    "BSTAR": 1.3322e-5,
    "MEAN_MOTION_DOT": -7.6e-7,
    "MEAN_MOTION_DDOT": 0
  },
  {
    "OBJECT_NAME": "STARLINK-3885",
    "OBJECT_ID": "2022-049N",
    "EPOCH": "2024-05-21T04:05:45.228768",
    "MEAN_MOTION": 15.08859297,
    "ECCENTRICITY": 0.0001253,
    "INCLINATION": 53.2155,
    "RA_OF_ASC_NODE": 120.835,
    "ARG_OF_PERICENTER": 96.1727,
    "MEAN_ANOMALY": 263.9408,
    "EPHEMERIS_TYPE": 0,
    "CLASSIFICATION_TYPE": "U",
    "NORAD_CAT_ID": 52463,
    "ELEMENT_SET_NO": 999,
    "REV_AT_EPOCH": 11328,
    "BSTAR": 0.00023827,
    "MEAN_MOTION_DOT": 3.508e-5,
    "MEAN_MOTION_DDOT": 0
  },
  {
    "OBJECT_NAME": "STARLINK-3904",
    "OBJECT_ID": "2022-049P",
    "EPOCH": "2024-05-20T09:05:05.202816",
    "MEAN_MOTION": 15.08841764,
    "ECCENTRICITY": 0.0001352,
    "INCLINATION": 53.2168,
    "RA_OF_ASC_NODE": 134.3947,
    "ARG_OF_PERICENTER": 86.1078,
    "MEAN_ANOMALY": 274.0069,
    "EPHEMERIS_TYPE": 0,
    "CLASSIFICATION_TYPE": "U",
    "NORAD_CAT_ID": 52464,
    "ELEMENT_SET_NO": 999,
    "REV_AT_EPOCH": 11286,
    "BSTAR": 0.00011675,
    "MEAN_MOTION_DOT": 1.571e-5,
    "MEAN_MOTION_DDOT": 0
  },
  {
    "OBJECT_NAME": "STARLINK-3863",
    "OBJECT_ID": "2022-049Q",
    "EPOCH": "2024-05-21T04:00:26.897472",
    "MEAN_MOTION": 15.08837802,
    "ECCENTRICITY": 0.0001787,
    "INCLINATION": 53.216,
    "RA_OF_ASC_NODE": 120.8492,
    "ARG_OF_PERICENTER": 120.7701,
    "MEAN_ANOMALY": 239.3467,
    "EPHEMERIS_TYPE": 0,
    "CLASSIFICATION_TYPE": "U",
    "NORAD_CAT_ID": 52465,
    "ELEMENT_SET_NO": 999,
    "REV_AT_EPOCH": 11328,
    "BSTAR": 2.4009e-5,
    "MEAN_MOTION_DOT": 9.4e-7,
    "MEAN_MOTION_DDOT": 0
  },
  {
    "OBJECT_NAME": "STARLINK-3840",
    "OBJECT_ID": "2022-049R",
    "EPOCH": "2024-05-21T04:16:25.120128",
    "MEAN_MOTION": 15.08843857,
    "ECCENTRICITY": 0.0001311,
    "INCLINATION": 53.2156,
    "RA_OF_ASC_NODE": 130.9748,
    "ARG_OF_PERICENTER": 83.3328,
    "MEAN_ANOMALY": 276.7814,
    "EPHEMERIS_TYPE": 0,
    "CLASSIFICATION_TYPE": "U",
    "NORAD_CAT_ID": 52466,
    "ELEMENT_SET_NO": 999,
    "REV_AT_EPOCH": 11314,
    "BSTAR": 0.00012488,
    "MEAN_MOTION_DOT": 1.7e-5,
    "MEAN_MOTION_DDOT": 0
  },
  {
    "OBJECT_NAME": "STARLINK-3873",
    "OBJECT_ID": "2022-049S",
    "EPOCH": "2024-05-20T08:54:29.542464",
    "MEAN_MOTION": 15.08834119,
    "ECCENTRICITY": 0.0001631,
    "INCLINATION": 53.2163,
    "RA_OF_ASC_NODE": 134.4298,
    "ARG_OF_PERICENTER": 78.4218,
    "MEAN_ANOMALY": 281.6957,
    "EPHEMERIS_TYPE": 0,
    "CLASSIFICATION_TYPE": "U",
    "NORAD_CAT_ID": 52467,
    "ELEMENT_SET_NO": 999,
    "REV_AT_EPOCH": 11286,
    "BSTAR": 0.00017523,
    "MEAN_MOTION_DOT": 2.501e-5,
    "MEAN_MOTION_DDOT": 0
  },
  {
    "OBJECT_NAME": "STARLINK-3864",
    "OBJECT_ID": "2022-049T",
    "EPOCH": "2024-05-21T05:13:18.760800",
    "MEAN_MOTION": 15.08836863,
    "ECCENTRICITY": 0.0001445,
    "INCLINATION": 53.2171,
    "RA_OF_ASC_NODE": 130.6269,
    "ARG_OF_PERICENTER": 97.6326,
    "MEAN_ANOMALY": 262.4831,
    "EPHEMERIS_TYPE": 0,
    "CLASSIFICATION_TYPE": "U",
    "NORAD_CAT_ID": 52468,
    "ELEMENT_SET_NO": 999,
    "REV_AT_EPOCH": 11315,
    "BSTAR": 0.0001097,
    "MEAN_MOTION_DOT": 1.458e-5,
    "MEAN_MOTION_DDOT": 0
  },
  {
    "OBJECT_NAME": "STARLINK-3828",
    "OBJECT_ID": "2022-049U",
    "EPOCH": "2024-05-21T05:23:54.498048",
    "MEAN_MOTION": 15.08839525,
    "ECCENTRICITY": 0.0001455,
    "INCLINATION": 53.2171,
    "RA_OF_ASC_NODE": 130.5953,
    "ARG_OF_PERICENTER": 99.4174,
    "MEAN_ANOMALY": 260.6982,
    "EPHEMERIS_TYPE": 0,
    "CLASSIFICATION_TYPE": "U",
    "NORAD_CAT_ID": 52469,
    "ELEMENT_SET_NO": 999,
    "REV_AT_EPOCH": 11315,
    "BSTAR": 0.00020956,
    "MEAN_MOTION_DOT": 3.049e-5,
    "MEAN_MOTION_DDOT": 0
  },
  {
    "OBJECT_NAME": "STARLINK-3859",
    "OBJECT_ID": "2022-049V",
    "EPOCH": "2024-05-21T05:02:42.578592",
    "MEAN_MOTION": 15.08851056,
    "ECCENTRICITY": 0.000155,
    "INCLINATION": 53.2169,
    "RA_OF_ASC_NODE": 130.6608,
    "ARG_OF_PERICENTER": 100.7687,
    "MEAN_ANOMALY": 259.3479,
    "EPHEMERIS_TYPE": 0,
    "CLASSIFICATION_TYPE": "U",
    "NORAD_CAT_ID": 52470,
    "ELEMENT_SET_NO": 999,
    "REV_AT_EPOCH": 11315,
    "BSTAR": -0.00014572,
    "MEAN_MOTION_DOT": -2.607e-5,
    "MEAN_MOTION_DDOT": 0
  },
  {
    "OBJECT_NAME": "STARLINK-3862",
    "OBJECT_ID": "2022-049W",
    "EPOCH": "2024-05-20T08:39:58.303008",
    "MEAN_MOTION": 15.08840627,
    "ECCENTRICITY": 0.0001212,
    "INCLINATION": 53.2153,
    "RA_OF_ASC_NODE": 134.4848,
    "ARG_OF_PERICENTER": 99.9018,
    "MEAN_ANOMALY": 260.2111,
    "EPHEMERIS_TYPE": 0,
    "CLASSIFICATION_TYPE": "U",
    "NORAD_CAT_ID": 52471,
    "ELEMENT_SET_NO": 999,
    "REV_AT_EPOCH": 11286,
    "BSTAR": 5.1356e-5,
    "MEAN_MOTION_DOT": 5.3e-6,
    "MEAN_MOTION_DDOT": 0
  },
  {
    "OBJECT_NAME": "STARLINK-3881",
    "OBJECT_ID": "2022-049X",
    "EPOCH": "2024-05-21T04:57:25.001568",
    "MEAN_MOTION": 15.08835508,
    "ECCENTRICITY": 0.0001114,
    "INCLINATION": 53.2174,
    "RA_OF_ASC_NODE": 130.6779,
    "ARG_OF_PERICENTER": 100.9061,
    "MEAN_ANOMALY": 259.2057,
    "EPHEMERIS_TYPE": 0,
    "CLASSIFICATION_TYPE": "U",
    "NORAD_CAT_ID": 52472,
    "ELEMENT_SET_NO": 999,
    "REV_AT_EPOCH": 11315,
    "BSTAR": 1.6082e-5,
    "MEAN_MOTION_DOT": -3.2e-7,
    "MEAN_MOTION_DDOT": 0
  },
  {
    "OBJECT_NAME": "STARLINK-3879",
    "OBJECT_ID": "2022-049Y",
    "EPOCH": "2024-05-20T06:52:36.739776",
    "MEAN_MOTION": 15.08834538,
    "ECCENTRICITY": 0.000146,
    "INCLINATION": 53.2173,
    "RA_OF_ASC_NODE": 134.8091,
    "ARG_OF_PERICENTER": 84.4707,
    "MEAN_ANOMALY": 275.6452,
    "EPHEMERIS_TYPE": 0,
    "CLASSIFICATION_TYPE": "U",
    "NORAD_CAT_ID": 52473,
    "ELEMENT_SET_NO": 999,
    "REV_AT_EPOCH": 11285,
    "BSTAR": 6.1092e-5,
    "MEAN_MOTION_DOT": 6.84e-6,
    "MEAN_MOTION_DDOT": 0
  },
  {
    "OBJECT_NAME": "STARLINK-3855",
    "OBJECT_ID": "2022-049Z",
    "EPOCH": "2024-05-20T08:46:36.562944",
    "MEAN_MOTION": 15.08844951,
    "ECCENTRICITY": 0.000158,
    "INCLINATION": 53.2165,
    "RA_OF_ASC_NODE": 124.4595,
    "ARG_OF_PERICENTER": 99.4713,
    "MEAN_ANOMALY": 260.6457,
    "EPHEMERIS_TYPE": 0,
    "CLASSIFICATION_TYPE": "U",
    "NORAD_CAT_ID": 52474,
    "ELEMENT_SET_NO": 999,
    "REV_AT_EPOCH": 11300,
    "BSTAR": 0.00027151,
    "MEAN_MOTION_DOT": 4.036e-5,
    "MEAN_MOTION_DDOT": 0
  },
  {
    "OBJECT_NAME": "STARLINK-3882",
    "OBJECT_ID": "2022-049AA",
    "EPOCH": "2024-05-21T03:53:52.190304",
    "MEAN_MOTION": 15.08832943,
    "ECCENTRICITY": 0.0001605,
    "INCLINATION": 53.2168,
    "RA_OF_ASC_NODE": 131.097,
    "ARG_OF_PERICENTER": 91.4485,
    "MEAN_ANOMALY": 268.6691,
    "EPHEMERIS_TYPE": 0,
    "CLASSIFICATION_TYPE": "U",
    "NORAD_CAT_ID": 52475,
    "ELEMENT_SET_NO": 999,
    "REV_AT_EPOCH": 11314,
    "BSTAR": 4.8766e-5,
    "MEAN_MOTION_DOT": 4.88e-6,
    "MEAN_MOTION_DDOT": 0
  },
  {
    "OBJECT_NAME": "STARLINK-3835",
    "OBJECT_ID": "2022-049AB",
    "EPOCH": "2024-05-21T04:17:45.576672",
    "MEAN_MOTION": 15.08850277,
    "ECCENTRICITY": 0.0001387,
    "INCLINATION": 53.215,
    "RA_OF_ASC_NODE": 121.0351,
    "ARG_OF_PERICENTER": 113.5686,
    "MEAN_ANOMALY": 246.5452,
    "EPHEMERIS_TYPE": 0,
    "CLASSIFICATION_TYPE": "U",
    "NORAD_CAT_ID": 52476,
    "ELEMENT_SET_NO": 999,
    "REV_AT_EPOCH": 11328,
    "BSTAR": 2.8392e-5,
    "MEAN_MOTION_DOT": 1.64e-6,
    "MEAN_MOTION_DDOT": 0
  }
]